[{"OBJECT_NAME":"STARLINK-34677","OBJECT_ID":"2025-161S","EPOCH":"2026-03-09T22:25:16.499136","MEAN_MOTION":15.30219127,"ECCENTRICITY":0.00026115,"INCLINATION":53.1603,"RA_OF_ASC_NODE":293.3259,"ARG_OF_PERICENTER":44.929,"MEAN_ANOMALY":315.1922,"EPHEMERIS_TYPE":0,"CLASSIFICATION_TYPE":"U","NORAD_CAT_ID":65031,"ELEMENT_SET_NO":999,"REV_AT_EPOCH":3426,"BSTAR":0.0014794379,"MEAN_MOTION_DOT":0.00043744,"MEAN_MOTION_DDOT":0},{"OBJECT_NAME":"CZ-4B DEB","OBJECT_ID":"2010-051E","EPOCH":"2026-03-08T22:01:50.125728","MEAN_MOTION":15.23766972,"ECCENTRICITY":0.00561086,"INCLINATION":97.769,"RA_OF_ASC_NODE":240.5013,"ARG_OF_PERICENTER":301.1291,"MEAN_ANOMALY":58.4449,"EPHEMERIS_TYPE":0,"CLASSIFICATION_TYPE":"U","NORAD_CAT_ID":38184,"ELEMENT_SET_NO":999,"REV_AT_EPOCH":82066,"BSTAR":0.0024566319,"MEAN_MOTION_DOT":0.00062123,"MEAN_MOTION_DDOT":0}]
